XXosa,e,12.54647,234.33906,45.25806,2.5713508,0.23903532,0.2626644,156.90778,11/5/1990,1950.0,12.04,0.15
Yabuuti,e,6.99048,64.25596,294.36122,2.6377922,0.23006111,0.0833145,124.60010,11/5/1990,1950.0,11.80,0.25
Yakhontovia,e,4.06032,303.88988,88.34930,2.6070349,0.23414442,0.3270663,194.59790,11/5/1990,1950.0,11.60,0.25
Yakutia,e,2.09788,359.32728,336.24101,2.3757797,0.26915028,0.2289313,208.53182,11/5/1990,1950.0,13.47,0.25
Yalta,e,4.50564,199.68510,200.94860,2.3496063,0.27366007,0.1684662,87.15614,11/5/1990,1950.0,13.00,0.25
Yamada,e,14.28312,261.50554,356.23492,2.5507756,0.24193332,0.0784083,100.80676,11/5/1990,1950.0,11.30,0.25
Yamamoto,e,4.09844,147.60729,110.32615,3.1797275,0.17382779,0.0986248,148.76543,11/5/1990,1950.0,11.40,0.15
Yanai,e,3.27013,90.58540,323.66906,2.8433715,0.20556712,0.0637900,182.07030,11/5/1990,1950.0,12.00,0.25
Yanan,e,7.30275,59.39950,345.73194,2.2394989,0.29408833,0.1804875,306.57283,11/5/1990,1950.0,13.22,0.25
Yangel,e,15.28157,190.15646,71.25736,2.5584586,0.24084436,0.1433180,62.59178,11/5/1990,1950.0,12.60,0.25
Yarilo,e,0.39478,66.02523,41.07823,2.4506541,0.25691002,0.1637348,81.12002,11/5/1990,1950.0,13.34,0.25
Yatskiv,e,2.59861,200.83202,97.44677,2.4565350,0.25598801,0.1686218,17.36745,11/5/1990,1950.0,12.59,0.15
Yatsugatake,e,5.12056,46.01833,163.05177,2.2403155,0.29392756,0.0913872,117.72230,11/5/1990,1950.0,13.90,0.25
Yazhi,e,2.13123,75.89413,179.07251,3.1674202,0.17484192,0.1243368,240.19635,11/5/1990,1950.0,10.81,0.15
Yeates,e,9.33887,201.94425,162.11805,2.8784080,0.20182527,0.0846029,203.23383,11/5/1990,1950.0,12.30,0.25
Yeomans,e,2.86780,111.91204,121.98507,2.7659068,0.21426328,0.0887959,291.75533,11/5/1990,1950.0,12.40,0.15
Yerkes,e,8.78166,353.73149,8.60768,2.6682555,0.22613248,0.2167023,253.52801,11/5/1990,1950.0,11.61,0.15
Yesenin,e,12.19235,311.06979,1.47864,3.0845408,0.18193585,0.1362323,10.80233,11/5/1990,1950.0,11.22,0.15
Yi Xing,e,4.13056,46.33082,31.96535,2.4188230,0.26199798,0.1681690,314.87213,11/5/1990,1950.0,13.20,0.25
Ylppo,e,11.39213,144.39158,82.37945,3.2281722,0.16992960,0.0633848,73.93593,11/5/1990,1950.0,10.60,0.25
Yorii,e,5.49808,111.61174,16.44775,3.0748671,0.18279510,0.2420998,203.83702,11/5/1990,1950.0,12.50,0.25
Yoshkar-Ola,e,2.94122,43.86836,325.78143,2.2023944,0.30155147,0.1554734,46.87010,11/5/1990,1950.0,13.91,0.25
Young,e,0.95151,18.99414,23.61812,3.1394098,0.17718708,0.1598912,359.97002,11/5/1990,1950.0,11.50,0.25
Yrjo,e,11.21784,108.98455,169.06768,3.0194970,0.18784610,0.0782276,103.81600,11/5/1990,1950.0,11.90,0.25
Yrsa,e,9.20280,98.94519,30.17618,2.7660790,0.21424328,0.1530726,67.09332,11/5/1990,1950.0,9.12,0.25
Yugoslavia,e,12.16196,216.75787,131.25881,2.6192491,0.23250852,0.2023215,304.41281,11/5/1990,1950.0,11.57,0.15
Yunnan,e,2.56367,153.50699,253.14778,2.8570232,0.20409549,0.0645025,174.12075,11/5/1990,1950.0,12.00,0.25
Yvette,e,0.42036,345.28282,226.20490,3.1704180,0.17459399,0.1428664,215.83991,11/5/1990,1950.0,11.32,0.15
Yvonne,e,34.03015,161.16079,302.00021,2.7661056,0.21424019,0.2712682,156.15770,11/5/1990,1950.0,10.70,0.25
Zachia,e,9.76672,214.58930,127.78203,2.6125948,0.23339739,0.2170293,318.81772,11/5/1990,1950.0,10.79,0.15
Zahringia,e,7.76375,187.02607,209.48653,2.5418031,0.24321548,0.2822184,72.85024,11/5/1990,1950.0,11.87,0.25
Zambesia,e,10.16656,349.70162,52.51204,2.7338179,0.21804679,0.1920462,165.27137,11/5/1990,1950.0,10.31,0.15
Zamenhof,e,0.96894,24.65722,192.46700,3.1516294,0.17615759,0.1035558,72.67960,11/5/1990,1950.0,11.00,0.25
Zappala,e,14.78606,231.76231,243.78676,3.1471875,0.17653066,0.1389133,170.84223,11/5/1990,1950.0,11.09,0.15
Zaragoza,e,13.94384,128.37686,216.43086,2.4031206,0.26457007,0.2244497,9.18202,11/5/1990,1950.0,12.40,0.25
Zaurak,f,3:58:2,-13:31,2.95,2000
Zawijah,f,11:50:42,1:46,3.61,2000
Zeelandia,e,3.19773,97.08727,219.21383,2.8493121,0.20492457,0.0642038,271.26306,11/5/1990,1950.0,10.93,0.25
Zeissia,e,2.39353,140.71109,6.91264,2.2284838,0.29627148,0.0897470,196.62260,11/5/1990,1950.0,11.75,0.25
Zelia,e,5.50703,354.30907,334.80491,2.3578498,0.27222617,0.1314716,211.17765,11/5/1990,1950.0,9.60,0.25
Zelima,e,10.91672,147.02541,189.10591,3.0143613,0.18832636,0.0914464,245.94312,11/5/1990,1950.0,9.94,0.25
Zelinda,e,18.12871,277.97496,213.73864,2.2970920,0.28309780,0.2304915,270.75231,11/5/1990,1950.0,8.43,0.05
Zelinsky,e,4.99297,225.87301,69.91140,2.2790553,0.28646514,0.2093339,193.78960,11/5/1990,1950.0,13.60,0.25
Zellner,e,1.61788,130.53681,129.43562,2.2254500,0.29687752,0.0860417,278.04349,11/5/1990,1950.0,12.98,0.25
Zenobia,e,9.92538,272.99411,2.40565,3.1453611,0.17668444,0.0856476,213.81033,11/5/1990,1950.0,9.40,0.25
Zerbinetta,e,14.19822,351.58658,282.67563,2.9429649,0.19522096,0.0297517,113.21169,11/5/1990,1950.0,9.21,0.25
Zerlina,e,33.96271,197.32129,57.62512,2.7874472,0.21178446,0.1958434,187.00751,11/5/1990,1950.0,11.10,0.25
Zeuxo,e,7.39522,48.74947,208.89605,2.5528749,0.24163496,0.0697171,335.59357,11/5/1990,1950.0,9.97,0.15
Zhang Heng,e,2.68634,142.20097,295.71941,2.8421302,0.20570181,0.0377052,96.80511,11/5/1990,1950.0,11.70,0.25
Zhejiang,e,9.58936,24.54158,18.74137,2.7986611,0.21051285,0.1595684,35.71952,11/5/1990,1950.0,11.79,0.15
Zhongguo,e,2.75525,86.68042,315.94440,3.2705886,0.16663461,0.1960115,207.38407,11/5/1990,1950.0,12.50,0.25
Zhongolovich,e,8.34164,181.72013,185.85871,2.7764610,0.21304273,0.2310339,157.71934,11/5/1990,1950.0,11.40,0.25
Zhuhai,e,14.35086,232.38963,241.55488,2.5626016,0.24026053,0.0592797,354.95935,11/5/1990,1950.0,12.10,0.25
Zhukov,e,5.86969,82.17997,338.52488,2.7824023,0.21236072,0.0828387,57.10407,11/5/1990,1950.0,11.20,0.25
Zichichi,e,5.41162,269.69010,151.43558,2.3390923,0.27550725,0.1737829,175.45135,11/5/1990,1950.0,13.10,0.25
Zimmer,e,2.93773,156.74780,4.94407,2.4552804,0.25618425,0.1171188,257.79196,11/5/1990,1950.0,13.13,0.15
Zimmerman,e,2.82043,26.66340,93.93157,2.2586478,0.29035633,0.0877338,60.51231,11/5/1990,1950.0,14.00,0.25
Zimmerwald,e,12.59058,195.81887,82.85969,2.6024830,0.23475899,0.1842778,9.30221,11/5/1990,1950.0,12.20,0.25
Zita,e,5.73935,167.72322,187.70805,2.3158317,0.27966851,0.2290375,8.84780,11/5/1990,1950.0,12.19,0.15
Zomba,e,9.95320,308.49372,22.44261,2.1955584,0.30296090,0.2711232,7.62941,11/5/1990,1950.0,13.49,0.25
Zoya,e,1.50825,225.48883,322.72156,2.2242606,0.29711569,0.0981028,289.61417,11/5/1990,1950.0,12.60,0.25
Zozca,,f,11:14:6,20:31,2.56,2000
Zu Chong-Zhi,e,5.86504,244.31905,232.54988,2.5489025,0.24220005,0.1633729,96.78000,11/5/1990,1950.0,12.00,0.25
Zubaida,e,13.29749,176.69959,300.35699,2.4172973,0.26224606,0.1957462,241.60687,11/5/1990,1950.0,12.10,0.25
Zuben,f,15:17:0,-9:23,2.61,2000
Zuben,f,15:35:32,-14:47,3.9,2000
Zulu,e,35.38419,225.88390,31.63706,3.2469821,0.16845513,0.4774114,5.14744,11/5/1990,1950.0,11.80,0.25
Zverdara,e,4.51582,356.50510,14.58269,2.3611290,0.27165926,0.2245268,279.13670,11/5/1990,1950.0,12.49,0.25
Zverev,e,4.62670,6.15987,91.49338,3.1298954,0.17799563,0.1633766,123.52333,11/5/1990,1950.0,11.10,0.25
Zwetana,e,12.70600,71.90065,128.97073,2.5712726,0.23904622,0.2078898,182.79424,11/5/1990,1950.0,9.58,0.25
Zwicky,e,21.54838,336.89953,253.69730,2.3478039,0.27397526,0.2497186,153.00687,11/5/1990,1950.0,12.20,0.25
Zyskin,e,6.51512,337.29816,353.88832,2.4233966,0.26125664,0.1289284,298.81599,11/5/1990,1950.0,12.10,0.25
d'Hotel,e,8.07772,161.86149,191.28202,2.6913353,0.22322990,0.2603385,42.80956,11/5/1990,1950.0,11.91,0.15
van Altena,e,8.26199,9.94477,315.18826,2.7129806,0.22056370,0.1849017,206.68466,11/5/1990,1950.0,12.80,0.25
van Gogh,e,13.80110,186.78527,338.37663,2.6619172,0.22694063,0.1294817,283.15345,11/5/1990,1950.0,12.30,0.25
van de Hulst,e,10.64629,166.49327,249.00199,3.0181958,0.18796759,0.1108394,225.63273,11/5/1990,1950.0,10.63,0.25
van den Heuvel,e,2.00958,228.12272,8.66572,2.3500719,0.27357874,0.1666362,238.95465,11/5/1990,1950.0,13.80,0.25
van der Laan,e,3.82846,248.18644,126.71139,2.4102289,0.26340052,0.0903970,11.48543,11/5/1990,1950.0,13.30,0.25
von Sprang,e,1.34789,117.35933,194.96486,2.3016592,0.28225559,0.2123774,256.72686,11/5/1990,1950.0,14.80,0.25
X
M1,f,5:34:30,22:2,8.4,2000
M2,f,21:33:17,0:47,6.3,2000
M3,f,13:42:9,28:21,6.4,2000
M4,f,16:23:18,-26:30,6.4,2000
M5,f,15:19:16,2:5,6.2,2000
M6,f,17:39:38,-32:13,5.3,2000
M7,f,17:53:40,-34:48,3.2,2000
M8,f,18:3:32,-24:23,6,2000
M9,f,17:18:28,-18:31,7.3,2000
M10,f,16:57:19,-4:7,6.7,2000
M11,f,18:51:21,-6:16,6.3,2000
M12,f,16:47:18,-1:58,6.6,2000
M13,f,16:41:54,36:27,5.7,2000
M14,f,17:37:19,-3:15,7.7,2000
M15,f,21:30:13,12:12,6,2000
M16,f,18:19:25,-13:47,6.5,2000
M17,f,18:21:27,-16:11,7,2000
M18,f,18:19:27,-17:8,7.5,2000
M19,f,17:2:33,-26:15,6.6,2000
M20,f,18:2:31,-23:2,9,2000
M21,f,18:4:31,-22:30,6.5,2000
M22,f,18:36:32,-23:55,5.9,2000
M23,f,17:56:29,-19:1,6.9,2000
M24,f,18:18:28,-18:24,4.6,2000
M25,f,18:32:29,-19:15,6,2000
M26,f,18:45:22,-9:24,9.3,2000
M27,f,20:0:5,22:44,7.6,2000
M28,f,18:24:33,-24:52,7.3,2000
M29,f,20:23:55,38:32,7.1,2000
M30,f,21:40:25,-23:8,8.4,2000
M31,f,0:43:22,41:17,4.8,2000
M32,f,0:43:22,40:53,8.7,2000
M33,f,1:34:25,30:41,6.7,2000
M34,f,2:42:37,42:49,5.5,2000
M35,f,6:9:32,24:21,5.3,2000
M36,f,5:36:40,34:6,6.3,2000
M37,f,5:53:38,32:33,6.2,2000
M38,f,5:28:41,35:49,7.4,2000
M39,f,21:32:54,48:28,5.2,2000
M40,f,12:35:19,58:13,9,2000
M41,f,6:47:3,-20:44,5,2000
M42,f,5:35:14,-5:23,5,2000
M43,f,5:35:14,-5:16,7,2000
M44,f,8:40:26,19:59,3.7,2000
M45,f,3:47:29,24:8,1.4,2000
M46,f,7:42:9,-14:50,6,2000
M47,f,7:37:9,-14:30,4.5,2000
M48,f,8:13:14,-5:46,5.3,2000
M49,f,12:30:16,7:59,8.6,2000
M50,f,7:3:12,-8:20,6.9,2000
M51,f,13:30:3,47:10,8.1,2000
M52,f,23:24:7,61:37,7.3,2000
M53,f,13:13:14,18:9,7.6,2000
M54,f,18:54:36,-30:29,8.7,2000
M55,f,19:39:35,-30:57,7.1,2000
M56,f,19:16:58,30:11,8.2,2000
M57,f,18:53:56,33:3,9.3,2000
M58,f,12:38:16,11:48,9.2,2000
M59,f,12:42:16,11:39,9.6,2000
M60,f,12:44:16,11:33,9.7,2000
M61,f,12:22:17,4:28,9.99,2000
M62,f,17:1:36,-30:7,6.6,2000
M63,f,13:16:7,42:0,9.5,2000
M64,f,12:57:14,21:40,8.8,2000
M65,f,11:19:18,13:5,9.3,2000
M66,f,11:20:18,12:59,8.4,2000
M67,f,8:50:22,11:48,6.1,2000
